CCSDS_OMM_VERS = 2.0
CREATION_DATE  = 
ORIGINATOR     = 

OBJECT_NAME    = STARLINK-36438
OBJECT_ID      = 2026-020J
CENTER_NAME    = EARTH
REF_FRAME      = TEME
TIME_SYSTEM    = UTC
MEAN_ELEMENT_THEORY = SGP/SGP4

EPOCH          = 2026-02-26T18:36:00.095904
MEAN_MOTION    = 15.76450930
ECCENTRICITY   = .00016784
INCLINATION    = 42.9984
RA_OF_ASC_NODE = 208.4938
ARG_OF_PERICENTER = 307.1565
MEAN_ANOMALY   = 52.9151

EPHEMERIS_TYPE = 0
CLASSIFICATION_TYPE = U
NORAD_CAT_ID   = 67625
ELEMENT_SET_NO = 999
REV_AT_EPOCH   = 436
BSTAR          = .20082088E-2
MEAN_MOTION_DOT = .341322E-2
MEAN_MOTION_DDOT = 0

CCSDS_OMM_VERS = 2.0
CREATION_DATE  = 
ORIGINATOR     = 

OBJECT_NAME    = STARLINK-36436
OBJECT_ID      = 2026-020K
CENTER_NAME    = EARTH
REF_FRAME      = TEME
TIME_SYSTEM    = UTC
MEAN_ELEMENT_THEORY = SGP/SGP4

EPOCH          = 2026-02-26T11:50:03.380352
MEAN_MOTION    = 15.76559651
ECCENTRICITY   = .0002494
INCLINATION    = 42.9977
RA_OF_ASC_NODE = 209.8023
ARG_OF_PERICENTER = 255.2286
MEAN_ANOMALY   = 104.8307

EPHEMERIS_TYPE = 0
CLASSIFICATION_TYPE = U
NORAD_CAT_ID   = 67626
ELEMENT_SET_NO = 999
REV_AT_EPOCH   = 432
BSTAR          = .20423E-2
MEAN_MOTION_DOT = .349131E-2
MEAN_MOTION_DDOT = 0

CCSDS_OMM_VERS = 2.0
CREATION_DATE  = 
ORIGINATOR     = 

OBJECT_NAME    = STARLINK-36502
OBJECT_ID      = 2026-020L
CENTER_NAME    = EARTH
REF_FRAME      = TEME
TIME_SYSTEM    = UTC
MEAN_ELEMENT_THEORY = SGP/SGP4

EPOCH          = 2026-02-26T17:39:14.315040
MEAN_MOTION    = 15.76470899
ECCENTRICITY   = .00017845
INCLINATION    = 42.9985
RA_OF_ASC_NODE = 208.1744
ARG_OF_PERICENTER = 266.8815
MEAN_ANOMALY   = 93.1851

EPHEMERIS_TYPE = 0
CLASSIFICATION_TYPE = U
NORAD_CAT_ID   = 67627
ELEMENT_SET_NO = 999
REV_AT_EPOCH   = 436
BSTAR          = .11699705E-2
MEAN_MOTION_DOT = .195389E-2
MEAN_MOTION_DDOT = 0

CCSDS_OMM_VERS = 2.0
CREATION_DATE  = 
ORIGINATOR     = 

OBJECT_NAME    = STARLINK-36532
OBJECT_ID      = 2026-020M
CENTER_NAME    = EARTH
REF_FRAME      = TEME
TIME_SYSTEM    = UTC
MEAN_ELEMENT_THEORY = SGP/SGP4

EPOCH          = 2026-02-26T22:00:01.999584
MEAN_MOTION    = 15.76365806
ECCENTRICITY   = .00018403
INCLINATION    = 42.9995
RA_OF_ASC_NODE = 207.0438
ARG_OF_PERICENTER = 282.7084
MEAN_ANOMALY   = 38.8042

EPHEMERIS_TYPE = 0
CLASSIFICATION_TYPE = U
NORAD_CAT_ID   = 67628
ELEMENT_SET_NO = 999
REV_AT_EPOCH   = 565
BSTAR          = -.2191688E-3
MEAN_MOTION_DOT = -.36026E-3
MEAN_MOTION_DDOT = 0

CCSDS_OMM_VERS = 2.0
CREATION_DATE  = 
ORIGINATOR     = 

OBJECT_NAME    = STARLINK-36367
OBJECT_ID      = 2026-020N
CENTER_NAME    = EARTH
REF_FRAME      = TEME
TIME_SYSTEM    = UTC
MEAN_ELEMENT_THEORY = SGP/SGP4

EPOCH          = 2026-02-26T19:42:00.487872
MEAN_MOTION    = 15.76405660
ECCENTRICITY   = .00015964
INCLINATION    = 42.9988
RA_OF_ASC_NODE = 207.9689
ARG_OF_PERICENTER = 293.8109
MEAN_ANOMALY   = 66.2593

EPHEMERIS_TYPE = 0
CLASSIFICATION_TYPE = U
NORAD_CAT_ID   = 67629
ELEMENT_SET_NO = 999
REV_AT_EPOCH   = 437
BSTAR          = .10464145E-2
MEAN_MOTION_DOT = .173749E-2
MEAN_MOTION_DDOT = 0

CCSDS_OMM_VERS = 2.0
CREATION_DATE  = 
ORIGINATOR     = 

OBJECT_NAME    = STARLINK-36416
OBJECT_ID      = 2026-020P
CENTER_NAME    = EARTH
REF_FRAME      = TEME
TIME_SYSTEM    = UTC
MEAN_ELEMENT_THEORY = SGP/SGP4

EPOCH          = 2026-02-26T18:32:50.489376
MEAN_MOTION    = 15.76481968
ECCENTRICITY   = .00033396
INCLINATION    = 42.9993
RA_OF_ASC_NODE = 208.4758
ARG_OF_PERICENTER = 296.4648
MEAN_ANOMALY   = 63.5879

EPHEMERIS_TYPE = 0
CLASSIFICATION_TYPE = U
NORAD_CAT_ID   = 67630
ELEMENT_SET_NO = 999
REV_AT_EPOCH   = 436
BSTAR          = .19493268E-2
MEAN_MOTION_DOT = .331386E-2
MEAN_MOTION_DDOT = 0

CCSDS_OMM_VERS = 2.0
CREATION_DATE  = 
ORIGINATOR     = 

OBJECT_NAME    = STARLINK-36527
OBJECT_ID      = 2026-020Q
CENTER_NAME    = EARTH
REF_FRAME      = TEME
TIME_SYSTEM    = UTC
MEAN_ELEMENT_THEORY = SGP/SGP4

EPOCH          = 2026-02-26T22:00:01.999584
MEAN_MOTION    = 15.76315842
ECCENTRICITY   = .00016179
INCLINATION    = 42.9990
RA_OF_ASC_NODE = 206.9506
ARG_OF_PERICENTER = 269.1611
MEAN_ANOMALY   = 89.7027

EPHEMERIS_TYPE = 0
CLASSIFICATION_TYPE = U
NORAD_CAT_ID   = 67631
ELEMENT_SET_NO = 999
REV_AT_EPOCH   = 565
BSTAR          = .27027362E-3
MEAN_MOTION_DOT = .43652E-3
MEAN_MOTION_DDOT = 0

CCSDS_OMM_VERS = 2.0
CREATION_DATE  = 
ORIGINATOR     = 

OBJECT_NAME    = STARLINK-36633
OBJECT_ID      = 2026-020R
CENTER_NAME    = EARTH
REF_FRAME      = TEME
TIME_SYSTEM    = UTC
MEAN_ELEMENT_THEORY = SGP/SGP4

EPOCH          = 2026-02-26T10:12:30.696192
MEAN_MOTION    = 15.76530786
ECCENTRICITY   = .0001823
INCLINATION    = 42.9984
RA_OF_ASC_NODE = 210.1527
ARG_OF_PERICENTER = 262.1443
MEAN_ANOMALY   = 97.9220

EPHEMERIS_TYPE = 0
CLASSIFICATION_TYPE = U
NORAD_CAT_ID   = 67632
ELEMENT_SET_NO = 999
REV_AT_EPOCH   = 431
BSTAR          = .17044E-2
MEAN_MOTION_DOT = .288825E-2
MEAN_MOTION_DDOT = 0

CCSDS_OMM_VERS = 2.0
CREATION_DATE  = 
ORIGINATOR     = 

OBJECT_NAME    = STARLINK-36637
OBJECT_ID      = 2026-020S
CENTER_NAME    = EARTH
REF_FRAME      = TEME
TIME_SYSTEM    = UTC
MEAN_ELEMENT_THEORY = SGP/SGP4

EPOCH          = 2026-02-26T18:29:41.421984
MEAN_MOTION    = 15.76475768
ECCENTRICITY   = .00031042
INCLINATION    = 42.9981
RA_OF_ASC_NODE = 208.4575
ARG_OF_PERICENTER = 296.0786
MEAN_ANOMALY   = 63.9764

EPHEMERIS_TYPE = 0
CLASSIFICATION_TYPE = U
NORAD_CAT_ID   = 67633
ELEMENT_SET_NO = 999
REV_AT_EPOCH   = 436
BSTAR          = .19036563E-2
MEAN_MOTION_DOT = .3232E-2
MEAN_MOTION_DDOT = 0

CCSDS_OMM_VERS = 2.0
CREATION_DATE  = 
ORIGINATOR     = 

OBJECT_NAME    = STARLINK-36617
OBJECT_ID      = 2026-020T
CENTER_NAME    = EARTH
REF_FRAME      = TEME
TIME_SYSTEM    = UTC
MEAN_ELEMENT_THEORY = SGP/SGP4

EPOCH          = 2026-02-26T22:00:01.999584
MEAN_MOTION    = 15.76322911
ECCENTRICITY   = .00016779
INCLINATION    = 42.9989
RA_OF_ASC_NODE = 206.9821
ARG_OF_PERICENTER = 280.6992
MEAN_ANOMALY   = 65.7038

EPHEMERIS_TYPE = 0
CLASSIFICATION_TYPE = U
NORAD_CAT_ID   = 67634
ELEMENT_SET_NO = 999
REV_AT_EPOCH   = 565
BSTAR          = .36010037E-3
MEAN_MOTION_DOT = .58444E-3
MEAN_MOTION_DDOT = 0

CCSDS_OMM_VERS = 2.0
CREATION_DATE  = 
ORIGINATOR     = 

OBJECT_NAME    = STARLINK-36627
OBJECT_ID      = 2026-020U
CENTER_NAME    = EARTH
REF_FRAME      = TEME
TIME_SYSTEM    = UTC
MEAN_ELEMENT_THEORY = SGP/SGP4

EPOCH          = 2026-02-26T19:51:28.064160
MEAN_MOTION    = 15.76432281
ECCENTRICITY   = .00018304
INCLINATION    = 42.9972
RA_OF_ASC_NODE = 208.0194
ARG_OF_PERICENTER = 268.0316
MEAN_ANOMALY   = 92.0344

EPHEMERIS_TYPE = 0
CLASSIFICATION_TYPE = U
NORAD_CAT_ID   = 67635
ELEMENT_SET_NO = 999
REV_AT_EPOCH   = 437
BSTAR          = .11418315E-2
MEAN_MOTION_DOT = .190236E-2
MEAN_MOTION_DDOT = 0

CCSDS_OMM_VERS = 2.0
CREATION_DATE  = 
ORIGINATOR     = 

OBJECT_NAME    = STARLINK-36624
OBJECT_ID      = 2026-020V
CENTER_NAME    = EARTH
REF_FRAME      = TEME
TIME_SYSTEM    = UTC
MEAN_ELEMENT_THEORY = SGP/SGP4

EPOCH          = 2026-02-26T19:23:05.500320
MEAN_MOTION    = 15.76443298
ECCENTRICITY   = .00024859
INCLINATION    = 42.9986
RA_OF_ASC_NODE = 207.8615
ARG_OF_PERICENTER = 299.4214
MEAN_ANOMALY   = 60.6408

EPHEMERIS_TYPE = 0
CLASSIFICATION_TYPE = U
NORAD_CAT_ID   = 67636
ELEMENT_SET_NO = 999
REV_AT_EPOCH   = 437
BSTAR          = .13451792E-2
MEAN_MOTION_DOT = .225257E-2
MEAN_MOTION_DDOT = 0

