STARLINK-36438          
1 67625U 26020J   26057.77500111  .00341322  00000+0  20082-2 0  9996
2 67625  42.9984 208.4938 0001678 307.1565  52.9151 15.76450930  4363
STARLINK-36436          
1 67626U 26020K   26057.49309468  .00349131  00000+0  20423-2 0  9993
2 67626  42.9977 209.8023 0002494 255.2286 104.8307 15.76559651  4322
STARLINK-36502          
1 67627U 26020L   26057.73558235  .00195389  00000+0  11700-2 0  9991
2 67627  42.9985 208.1744 0001784 266.8815  93.1851 15.76470899  4365
STARLINK-36532          
1 67628U 26020M   26057.91668981 -.00036026  00000+0 -21917-3 0  9998
2 67628  42.9995 207.0438 0001840 282.7084  38.8042 15.76365806  5655
STARLINK-36367          
1 67629U 26020N   26057.82083898  .00173749  00000+0  10464-2 0  9993
2 67629  42.9988 207.9689 0001596 293.8109  66.2593 15.76405660  4371
STARLINK-36416          
1 67630U 26020P   26057.77280659  .00331386  00000+0  19493-2 0  9997
2 67630  42.9993 208.4758 0003339 296.4648  63.5879 15.76481968  4367
STARLINK-36527          
1 67631U 26020Q   26057.91668981  .00043652  00000+0  27027-3 0  9991
2 67631  42.9990 206.9506 0001617 269.1611  89.7027 15.76315842  5658
STARLINK-36633          
1 67632U 26020R   26057.42535528  .00288825  00000+0  17044-2 0  9998
2 67632  42.9984 210.1527 0001823 262.1443  97.9220 15.76530786  4311
STARLINK-36637          
1 67633U 26020S   26057.77061831  .00323200  00000+0  19037-2 0  9999
2 67633  42.9981 208.4575 0003104 296.0786  63.9764 15.76475768  4361
STARLINK-36617          
1 67634U 26020T   26057.91668981  .00058444  00000+0  36010-3 0  9991
2 67634  42.9989 206.9821 0001677 280.6992  65.7038 15.76322911  5656
STARLINK-36627          
1 67635U 26020U   26057.82740815  .00190236  00000+0  11418-2 0  9999
2 67635  42.9972 208.0194 0001830 268.0316  92.0344 15.76432281  4379
STARLINK-36624          
1 67636U 26020V   26057.80770255  .00225257  00000+0  13452-2 0  9991
2 67636  42.9986 207.8615 0002485 299.4214  60.6408 15.76443298  4374
